ELYSIUM STAR 2 & LFF    
1 43760U 18099C   24211.92035871  .00049033  00000+0  16753-2 0  9994
2 43760  97.5140 279.8777 0006908 131.3887 228.7949 15.30109476309761
